{
  "type": "FeatureCollection",
  "features": [
    {
      "type": "Feature",
      "properties": {
        "norad_id": 57400,
        "name": "TIANMU-1 08",
        "group": "weather",
        "lat": 45.56638544290457,
        "lon": 27.05802917739627,
        "alt_km": 474.071372154649,
        "timestamp": "2025-12-10T20:49:52.204134+00:00",
        "meta_object_name": "TIANMU-1 08",
        "meta_object_id": "2023-101B",
        "meta_epoch": "2025-12-10T14:20:37.366944",
        "meta_mean_motion": 15.28004469,
        "meta_eccentricity": 0.00075724,
        "meta_inclination": 97.2866,
        "meta_ra_of_asc_node": 34.2928,
        "meta_arg_of_pericenter": 89.8128,
        "meta_mean_anomaly": 270.398,
        "meta_ephemeris_type": 0,
        "meta_classification_type": "U",
        "meta_norad_cat_id": 57400,
        "meta_element_set_no": 999,
        "meta_rev_at_epoch": 13282,
        "meta_bstar": 0.00039436198,
        "meta_mean_motion_dot": 0.00010714,
        "meta_mean_motion_ddot": 0,
        "tle_line1": "1 57400U 23101B   25344.59765471  .00010714  00000+0  39436-3 0  9995",
        "tle_line2": "2 57400  97.2866  34.2928 0007572  89.8128 270.3980 15.28004469132825"
      },
      "geometry": {
        "type": "Point",
        "coordinates": [
          27.05802917739627,
          45.56638544290457
        ]
      }
    },
    {
      "type": "Feature",
      "properties": {
        "norad_id": 57401,
        "name": "TIANMU-1 09",
        "group": "weather",
        "lat": 60.44165449439166,
        "lon": -132.89702865110553,
        "alt_km": 471.799993561076,
        "timestamp": "2025-12-10T20:49:52.204170+00:00",
        "meta_object_name": "TIANMU-1 09",
        "meta_object_id": "2023-101C",
        "meta_epoch": "2025-12-10T14:01:39.002016",
        "meta_mean_motion": 15.28031687,
        "meta_eccentricity": 0.00068147,
        "meta_inclination": 97.2822,
        "meta_ra_of_asc_node": 33.7945,
        "meta_arg_of_pericenter": 89.6767,
        "meta_mean_anomaly": 270.5254,
        "meta_ephemeris_type": 0,
        "meta_classification_type": "U",
        "meta_norad_cat_id": 57401,
        "meta_element_set_no": 999,
        "meta_rev_at_epoch": 13282,
        "meta_bstar": 0.00041566359,
        "meta_mean_motion_dot": 0.00011306,
        "meta_mean_motion_ddot": 0,
        "tle_line1": "1 57401U 23101C   25344.58447919  .00011306  00000+0  41566-3 0  9994",
        "tle_line2": "2 57401  97.2822  33.7945 0006814  89.6767 270.5254 15.28031687132824"
      },
      "geometry": {
        "type": "Point",
        "coordinates": [
          -132.89702865110553,
          60.44165449439166
        ]
      }
    },
    {
      "type": "Feature",
      "properties": {
        "norad_id": 57402,
        "name": "TIANMU-1 10",
        "group": "weather",
        "lat": -68.2640737356932,
        "lon": 53.64968417510226,
        "alt_km": 494.44501955876876,
        "timestamp": "2025-12-10T20:49:52.204191+00:00",
        "meta_object_name": "TIANMU-1 10",
        "meta_object_id": "2023-101D",
        "meta_epoch": "2025-12-10T14:50:54.180960",
        "meta_mean_motion": 15.28023925,
        "meta_eccentricity": 0.00085647,
        "meta_inclination": 97.2903,
        "meta_ra_of_asc_node": 34.6754,
        "meta_arg_of_pericenter": 89.5568,
        "meta_mean_anomaly": 270.6653,
        "meta_ephemeris_type": 0,
        "meta_classification_type": "U",
        "meta_norad_cat_id": 57402,
        "meta_element_set_no": 999,
        "meta_rev_at_epoch": 13282,
        "meta_bstar": 0.00043616579,
        "meta_mean_motion_dot": 0.00011869,
        "meta_mean_motion_ddot": 0,
        "tle_line1": "1 57402U 23101D   25344.61868265  .00011869  00000+0  43617-3 0  9993",
        "tle_line2": "2 57402  97.2903  34.6754 0008564  89.5568 270.6653 15.28023925132825"
      },
      "geometry": {
        "type": "Point",
        "coordinates": [
          53.64968417510226,
          -68.2640737356932
        ]
      }
    },
    {
      "type": "Feature",
      "properties": {
        "norad_id": 57490,
        "name": "FENGYUN 3F",
        "group": "weather",
        "lat": -17.775091121636173,
        "lon": -129.62493379153034,
        "alt_km": 830.7163527434095,
        "timestamp": "2025-12-10T20:49:52.204766+00:00",
        "meta_object_name": "FENGYUN 3F",
        "meta_object_id": "2023-111A",
        "meta_epoch": "2025-12-10T14:49:42.763584",
        "meta_mean_motion": 14.19892807,
        "meta_eccentricity": 6.586e-05,
        "meta_inclination": 98.7086,
        "meta_ra_of_asc_node": 52.9455,
        "meta_arg_of_pericenter": 97.9971,
        "meta_mean_anomaly": 262.128,
        "meta_ephemeris_type": 0,
        "meta_classification_type": "U",
        "meta_norad_cat_id": 57490,
        "meta_element_set_no": 999,
        "meta_rev_at_epoch": 12210,
        "meta_bstar": 9.2226302e-05,
        "meta_mean_motion_dot": 1.52e-06,
        "meta_mean_motion_ddot": 0,
        "tle_line1": "1 57490U 23111A   25344.61785606  .00000152  00000+0  92226-4 0  9992",
        "tle_line2": "2 57490  98.7086  52.9455 0000658  97.9971 262.1280 14.19892807122102"
      },
      "geometry": {
        "type": "Point",
        "coordinates": [
          -129.62493379153034,
          -17.775091121636173
        ]
      }
    },
    {
      "type": "Feature",
      "properties": {
        "norad_id": 58584,
        "name": "ARKTIKA-M 2",
        "group": "weather",
        "lat": 31.07275075892388,
        "lon": -167.1906755076507,
        "alt_km": 17649.065804754257,
        "timestamp": "2025-12-10T20:49:52.204793+00:00",
        "meta_object_name": "ARKTIKA-M 2",
        "meta_object_id": "2023-198A",
        "meta_epoch": "2025-12-08T20:10:13.977120",
        "meta_mean_motion": 2.0060476,
        "meta_eccentricity": 0.68646991,
        "meta_inclination": 63.2247,
        "meta_ra_of_asc_node": 175.3152,
        "meta_arg_of_pericenter": 268.1185,
        "meta_mean_anomaly": 18.8267,
        "meta_ephemeris_type": 0,
        "meta_classification_type": "U",
        "meta_norad_cat_id": 58584,
        "meta_element_set_no": 999,
        "meta_rev_at_epoch": 1450,
        "meta_bstar": 0,
        "meta_mean_motion_dot": 1.66e-06,
        "meta_mean_motion_ddot": 0,
        "tle_line1": "1 58584U 23198A   25342.84043955  .00000166  00000+0  00000+0 0  9998",
        "tle_line2": "2 58584  63.2247 175.3152 6864699 268.1185  18.8267  2.00604760 14506"
      },
      "geometry": {
        "type": "Point",
        "coordinates": [
          -167.1906755076507,
          31.07275075892388
        ]
      }
    },
    {
      "type": "Feature",
      "properties": {
        "norad_id": 58645,
        "name": "TIANMU-1 11",
        "group": "weather",
        "lat": 46.321396884988765,
        "lon": -167.69551376410686,
        "alt_km": 493.6485816138256,
        "timestamp": "2025-12-10T20:49:52.204813+00:00",
        "meta_object_name": "TIANMU-1 11",
        "meta_object_id": "2023-205A",
        "meta_epoch": "2025-12-10T12:22:22.438272",
        "meta_mean_motion": 15.24555463,
        "meta_eccentricity": 0.00080863,
        "meta_inclination": 97.361,
        "meta_ra_of_asc_node": 4.1776,
        "meta_arg_of_pericenter": 319.6142,
        "meta_mean_anomaly": 40.4494,
        "meta_ephemeris_type": 0,
        "meta_classification_type": "U",
        "meta_norad_cat_id": 58645,
        "meta_element_set_no": 999,
        "meta_rev_at_epoch": 10875,
        "meta_bstar": 0.00036754829,
        "meta_mean_motion_dot": 8.991e-05,
        "meta_mean_motion_ddot": 0,
        "tle_line1": "1 58645U 23205A   25344.51553748  .00008991  00000+0  36755-3 0  9991",
        "tle_line2": "2 58645  97.3610   4.1776 0008086 319.6142  40.4494 15.24555463108755"
      },
      "geometry": {
        "type": "Point",
        "coordinates": [
          -167.69551376410686,
          46.321396884988765
        ]
      }
    },
    {
      "type": "Feature",
      "properties": {
        "norad_id": 58646,
        "name": "TIANMU-1 12",
        "group": "weather",
        "lat": -13.863620059724367,
        "lon": 6.158031430127714,
        "alt_km": 494.31168786289527,
        "timestamp": "2025-12-10T20:49:52.204830+00:00",
        "meta_object_name": "TIANMU-1 12",
        "meta_object_id": "2023-205B",
        "meta_epoch": "2025-12-10T14:35:27.148704",
        "meta_mean_motion": 15.24438461,
        "meta_eccentricity": 0.00059808,
        "meta_inclination": 97.3598,
        "meta_ra_of_asc_node": 4.0746,
        "meta_arg_of_pericenter": 300.9682,
        "meta_mean_anomaly": 59.0967,
        "meta_ephemeris_type": 0,
        "meta_classification_type": "U",
        "meta_norad_cat_id": 58646,
        "meta_element_set_no": 999,
        "meta_rev_at_epoch": 10875,
        "meta_bstar": 0.00041182856,
        "meta_mean_motion_dot": 0.00010045,
        "meta_mean_motion_ddot": 0,
        "tle_line1": "1 58646U 23205B   25344.60795311  .00010045  00000+0  41183-3 0  9990",
        "tle_line2": "2 58646  97.3598   4.0746 0005980 300.9682  59.0967 15.24438461108758"
      },
      "geometry": {
        "type": "Point",
        "coordinates": [
          6.158031430127714,
          -13.863620059724367
        ]
      }
    }
  ]
}